{
  "type": "FeatureCollection",
  "features": [
    {
      "type": "Feature",
      "properties": {
        "nama_lokasi": "Dusun Karanggebang",
        "kategori": "Dusun",
        "keterangan": "Titik pusat dusun"
      },
      "geometry": {
        "type": "Point",
        "coordinates": [
          112.267027,
          -7.398044
        ]
      }
    },
    {
      "type": "Feature",
      "properties": {
        "nama_lokasi": "Dusun Duren",
        "kategori": "Dusun",
        "keterangan": "Titik pusat dusun"
      },
      "geometry": {
        "type": "Point",
        "coordinates": [
          112.267311,
          -7.389973
        ]
      }
    },
    {
      "type": "Feature",
      "properties": {
        "nama_lokasi": "Dusun Slumbung",
        "kategori": "Dusun",
        "keterangan": "Titik pusat dusun"
      },
      "geometry": {
        "type": "Point",
        "coordinates": [
          112.264992,
          -7.397119
        ]
      }
    },
    {
      "type": "Feature",
      "properties": {
        "nama_lokasi": "Dusun Kalipang",
        "kategori": "Dusun",
        "keterangan": "Titik pusat dusun"
      },
      "geometry": {
        "type": "Point",
        "coordinates": [
          112.26492,
          -7.393153
        ]
      }
    },
    {
      "type": "Feature",
      "properties": {
        "nama_lokasi": "Dusun Kadenan",
        "kategori": "Dusun",
        "keterangan": "Titik pusat dusun"
      },
      "geometry": {
        "type": "Point",
        "coordinates": [
          112.26754,
          -7.402064
        ]
      }
    },
    {
      "type": "Feature",
      "properties": {
        "nama_lokasi": "Dusun Jatirubuh",
        "kategori": "Dusun",
        "keterangan": "Titik pusat dusun"
      },
      "geometry": {
        "type": "Point",
        "coordinates": [
          112.268511,
          -7.40006
        ]
      }
    },
    {
      "type": "Feature",
      "properties": {
        "nama_lokasi": "Dusun MunungKerep",
        "kategori": "Dusun",
        "keterangan": "Titik pusat dusun"
      },
      "geometry": {
        "type": "Point",
        "coordinates": [
          112.275841,
          -7.386496
        ]
      }
    },
    {
      "type": "Feature",
      "properties": {
        "nama_lokasi": "SDN Munungkerep 2",
        "kategori": "Pendidikan",
        "keterangan": "Sekolah Dasar Negeri"
      },
      "geometry": {
        "type": "Point",
        "coordinates": [
          112.267381,
          -7.402438
        ]
      }
    },
    {
      "type": "Feature",
      "properties": {
        "nama_lokasi": "Masjid Al Ikhlas",
        "kategori": "Sarana Ibadah",
        "keterangan": "Masjid warga"
      },
      "geometry": {
        "type": "Point",
        "coordinates": [
          112.269209,
          -7.402438
        ]
      }
    },
    {
      "type": "Feature",
      "properties": {
        "nama_lokasi": "Masjid Hidayatulloh",
        "kategori": "Sarana Ibadah",
        "keterangan": "Masjid warga"
      },
      "geometry": {
        "type": "Point",
        "coordinates": [
          112.26913465819986,
          -7.399765366674722
        ]
      }
    },
    {
      "type": "Feature",
      "properties": {
        "nama_lokasi": "Masjid Baitush Shiddiqiin",
        "kategori": "Sarana Ibadah",
        "keterangan": "Masjid Dusun Jatirubuh, Munungkerep"
      },
      "geometry": {
        "type": "Point",
        "coordinates": [
          112.26956687187405,
          -7.399910332515795
        ]
      }
    },
    {
      "type": "Feature",
      "properties": {
        "nama_lokasi": "Anyacraft",
        "kategori": "UMKM Lokal",
        "keterangan": "Usaha kerajinan anyaman warga"
      },
      "geometry": {
        "type": "Point",
        "coordinates": [
          112.267781,
          -7.399207
        ]
      }
    },
    {
      "type": "Feature",
      "properties": {
        "nama_lokasi": "Mushola Al Muhsin",
        "kategori": "Sarana Ibadah",
        "keterangan": "Musala warga"
      },
      "geometry": {
        "type": "Point",
        "coordinates": [
          112.266644,
          -7.396299
        ]
      }
    },
    {
      "type": "Feature",
      "properties": {
        "nama_lokasi": "Ponpes Bumi Istigfar",
        "kategori": "Sarana Ibadah",
        "keterangan": "Pondok pesantren"
      },
      "geometry": {
        "type": "Point",
        "coordinates": [
          112.266952,
          -7.396958
        ]
      }
    },
    {
      "type": "Feature",
      "properties": {
        "nama_lokasi": "Masjid Al Manshurin",
        "kategori": "Sarana Ibadah",
        "keterangan": "Masjid warga (LDII)"
      },
      "geometry": {
        "type": "Point",
        "coordinates": [
          112.268477,
          -7.389755
        ]
      }
    },
    {
      "type": "Feature",
      "properties": {
        "nama_lokasi": "SDN Munungkerep 3",
        "kategori": "Pendidikan",
        "keterangan": "Sekolah Dasar Negeri"
      },
      "geometry": {
        "type": "Point",
        "coordinates": [
          112.275681,
          -7.385733
        ]
      }
    },
    {
      "type": "Feature",
      "properties": {
        "nama_lokasi": "Tugu Sentra Anyaman",
        "kategori": "Lainnya",
        "keterangan": "Tugu penanda lokasi sentra kerajinan anyaman desa (bukan lokasi produksi)",
        "ikon_khusus": "🗼"
      },
      "geometry": {
        "type": "Point",
        "coordinates": [
          112.266656,
          -7.401778
        ]
      }
    },
    {
      "type": "Feature",
      "properties": {
        "nama_lokasi": "Balai Desa Munungkerep",
        "kategori": "Pemerintahan",
        "keterangan": "Balai Desa, berada di depan SDN Munungkerep 2"
      },
      "geometry": {
        "type": "Point",
        "coordinates": [
          112.2675784683982,
          -7.402195334212572
        ]
      }
    },
    {
      "type": "Feature",
      "properties": {
        "nama_lokasi": "Ponpes Daarut Tauhid",
        "kategori": "Sarana Ibadah",
        "keterangan": "Pondok pesantren"
      },
      "geometry": {
        "type": "Point",
        "coordinates": [
          112.26817880606662,
          -7.401744859138248
        ]
      }
    },
    {
      "type": "Feature",
      "properties": {
        "nama_lokasi": "TPQ Al-Hikmah",
        "kategori": "Sarana Ibadah",
        "keterangan": "Taman Pendidikan Al-Qur'an"
      },
      "geometry": {
        "type": "Point",
        "coordinates": [
          112.26607194744223,
          -7.39850653662795
        ]
      }
    },
    {
      "type": "Feature",
      "properties": {
        "nama_lokasi": "TK Nusa Indah",
        "kategori": "Pendidikan",
        "keterangan": "Taman Kanak-Kanak"
      },
      "geometry": {
        "type": "Point",
        "coordinates": [
          112.26765916134805,
          -7.402346862731372
        ]
      }
    },
    {
      "type": "Feature",
      "properties": {
        "nama_lokasi": "Dusun Kalipang",
        "kategori": "Wilayah Dusun",
        "keterangan": "Batas wilayah dusun",
        "warna_fill": "#673ab7",
        "warna_stroke": "#673ab7"
      },
      "geometry": {
        "type": "Polygon",
        "coordinates": [
          [
            [
              112.2650899,
              -7.3954591
            ],
            [
              112.2653152,
              -7.3941185
            ],
            [
              112.2659697,
              -7.3927354
            ],
            [
              112.2658409,
              -7.3924162
            ],
            [
              112.264414,
              -7.3919799
            ],
            [
              112.2635986,
              -7.3924268
            ],
            [
              112.264296,
              -7.3934695
            ],
            [
              112.2647573,
              -7.3948314
            ],
            [
              112.26465,
              -7.3952782
            ],
            [
              112.2648539,
              -7.395491
            ],
            [
              112.2650899,
              -7.3954591
            ]
          ]
        ]
      }
    },
    {
      "type": "Feature",
      "properties": {
        "nama_lokasi": "Dusun Slumbung",
        "kategori": "Wilayah Dusun",
        "keterangan": "Batas wilayah dusun",
        "warna_fill": "#e65100",
        "warna_stroke": "#e65100"
      },
      "geometry": {
        "type": "Polygon",
        "coordinates": [
          [
            [
              112.2648539,
              -7.395491
            ],
            [
              112.264775,
              -7.3969229
            ],
            [
              112.2638738,
              -7.3969016
            ],
            [
              112.2633266,
              -7.3977421
            ],
            [
              112.2629082,
              -7.3984976
            ],
            [
              112.2640454,
              -7.3986146
            ],
            [
              112.2647536,
              -7.3987103
            ],
            [
              112.2651291,
              -7.3987848
            ],
            [
              112.2658372,
              -7.3989976
            ],
            [
              112.2660303,
              -7.399636
            ],
            [
              112.2664916,
              -7.3991359
            ],
            [
              112.2665882,
              -7.3983912
            ],
            [
              112.2662663,
              -7.3979762
            ],
            [
              112.2662663,
              -7.3975506
            ],
            [
              112.266438,
              -7.3970612
            ],
            [
              112.2659981,
              -7.3966676
            ],
            [
              112.26529,
              -7.3968059
            ],
            [
              112.265054,
              -7.3968378
            ],
            [
              112.2650899,
              -7.3954591
            ],
            [
              112.2648539,
              -7.395491
            ]
          ]
        ]
      }
    },
    {
      "type": "Feature",
      "properties": {
        "nama_lokasi": "Dusun Karanggebang",
        "kategori": "Wilayah Dusun",
        "keterangan": "Batas wilayah dusun",
        "warna_fill": "#0f9d58",
        "warna_stroke": "#0f9d58"
      },
      "geometry": {
        "type": "Polygon",
        "coordinates": [
          [
            [
              112.2660303,
              -7.399636
            ],
            [
              112.2663951,
              -7.3999426
            ],
            [
              112.2664594,
              -7.4004959
            ],
            [
              112.2666204,
              -7.4016981
            ],
            [
              112.2669637,
              -7.4017407
            ],
            [
              112.2676182,
              -7.3998469
            ],
            [
              112.2681439,
              -7.3996022
            ],
            [
              112.268573,
              -7.398219
            ],
            [
              112.2687769,
              -7.3959634
            ],
            [
              112.2687125,
              -7.3966976
            ],
            [
              112.2693455,
              -7.3962933
            ],
            [
              112.2691846,
              -7.3958571
            ],
            [
              112.2679615,
              -7.395474
            ],
            [
              112.2673607,
              -7.3963997
            ],
            [
              112.2669208,
              -7.3968572
            ],
            [
              112.266438,
              -7.3970612
            ],
            [
              112.2662449,
              -7.3978679
            ],
            [
              112.2665882,
              -7.3983912
            ],
            [
              112.2664916,
              -7.3991359
            ],
            [
              112.2660303,
              -7.399636
            ]
          ]
        ]
      }
    },
    {
      "type": "Feature",
      "properties": {
        "nama_lokasi": "Dusun Jatirubuh",
        "kategori": "Wilayah Dusun",
        "keterangan": "Batas wilayah dusun",
        "warna_fill": "#a1c2fa",
        "warna_stroke": "#a1c2fa"
      },
      "geometry": {
        "type": "Polygon",
        "coordinates": [
          [
            [
              112.267385,
              -7.4005426
            ],
            [
              112.2680663,
              -7.4008618
            ],
            [
              112.2689783,
              -7.4009735
            ],
            [
              112.2701906,
              -7.4009256
            ],
            [
              112.2705983,
              -7.4009681
            ],
            [
              112.2705554,
              -7.4004309
            ],
            [
              112.2702496,
              -7.399585
            ],
            [
              112.2700243,
              -7.3989998
            ],
            [
              112.268573,
              -7.398219
            ],
            [
              112.2681439,
              -7.3996022
            ],
            [
              112.2676182,
              -7.3998469
            ],
            [
              112.267385,
              -7.4005426
            ]
          ]
        ]
      }
    },
    {
      "type": "Feature",
      "properties": {
        "nama_lokasi": "Dusun Kadenan",
        "kategori": "Wilayah Dusun",
        "keterangan": "Batas wilayah dusun",
        "warna_fill": "#558b2f",
        "warna_stroke": "#558b2f"
      },
      "geometry": {
        "type": "Polygon",
        "coordinates": [
          [
            [
              112.2666204,
              -7.4016981
            ],
            [
              112.2667793,
              -7.4019313
            ],
            [
              112.2671494,
              -7.4022398
            ],
            [
              112.2673533,
              -7.4024101
            ],
            [
              112.2671655,
              -7.4029952
            ],
            [
              112.2676644,
              -7.4031123
            ],
            [
              112.2687963,
              -7.403857
            ],
            [
              112.2701857,
              -7.4038517
            ],
            [
              112.2702822,
              -7.4025909
            ],
            [
              112.2706309,
              -7.4014525
            ],
            [
              112.2705983,
              -7.4009681
            ],
            [
              112.2689783,
              -7.4009735
            ],
            [
              112.2680663,
              -7.4008618
            ],
            [
              112.267385,
              -7.4005426
            ],
            [
              112.2669637,
              -7.4017407
            ],
            [
              112.2666204,
              -7.4016981
            ]
          ]
        ]
      }
    },
    {
      "type": "Feature",
      "properties": {
        "nama_lokasi": "Dusun Munungkerep",
        "kategori": "Wilayah Dusun",
        "keterangan": "Pusat Desa Munungkerep",
        "warna_fill": "#000000",
        "warna_stroke": "#000000"
      },
      "geometry": {
        "type": "Polygon",
        "coordinates": [
          [
            [
              112.2743442,
              -7.3854388
            ],
            [
              112.2734001,
              -7.3854388
            ],
            [
              112.2737648,
              -7.3861836
            ],
            [
              112.2741082,
              -7.3867369
            ],
            [
              112.274945,
              -7.3875029
            ],
            [
              112.2756746,
              -7.3878008
            ],
            [
              112.2766616,
              -7.38812
            ],
            [
              112.2768066,
              -7.3881468
            ],
            [
              112.2772304,
              -7.3886841
            ],
            [
              112.2776112,
              -7.3888916
            ],
            [
              112.2777078,
              -7.3879713
            ],
            [
              112.2777132,
              -7.3874819
            ],
            [
              112.2778902,
              -7.3870031
            ],
            [
              112.2773913,
              -7.3865456
            ],
            [
              112.2763399,
              -7.3858859
            ],
            [
              112.2755996,
              -7.3854497
            ],
            [
              112.2743442,
              -7.3854388
            ]
          ]
        ]
      }
    },
    {
      "type": "Feature",
      "properties": {
        "nama_lokasi": "Batas Desa Munungkerep",
        "kategori": "Batas Desa",
        "keterangan": "Batas administratif keseluruhan Desa Munungkerep"
      },
      "geometry": {
        "type": "Polygon",
        "coordinates": [
          [
            [
              112.2629082,
              -7.3984976
            ],
            [
              112.2644969,
              -7.3987179
            ],
            [
              112.2656343,
              -7.3987922
            ],
            [
              112.2655592,
              -7.3991646
            ],
            [
              112.2661493,
              -7.3986007
            ],
            [
              112.2670398,
              -7.3981538
            ],
            [
              112.2674904,
              -7.3986964
            ],
            [
              112.2672973,
              -7.3991752
            ],
            [
              112.2676621,
              -7.3992922
            ],
            [
              112.267072,
              -7.4011009
            ],
            [
              112.2668252,
              -7.4020585
            ],
            [
              112.266675,
              -7.4032076
            ],
            [
              112.2664712,
              -7.4051226
            ],
            [
              112.2667501,
              -7.4052929
            ],
            [
              112.2667501,
              -7.405644
            ],
            [
              112.2664175,
              -7.4054737
            ],
            [
              112.2661493,
              -7.4072931
            ],
            [
              112.2666428,
              -7.4074207
            ],
            [
              112.2666106,
              -7.4077931
            ],
            [
              112.2662888,
              -7.4076974
            ],
            [
              112.2661708,
              -7.4083676
            ],
            [
              112.2659776,
              -7.4083038
            ],
            [
              112.265055,
              -7.4083357
            ],
            [
              112.264894,
              -7.4087081
            ],
            [
              112.2650013,
              -7.4096443
            ],
            [
              112.265291,
              -7.4101657
            ],
            [
              112.2671256,
              -7.4104529
            ],
            [
              112.2668896,
              -7.411719
            ],
            [
              112.2668145,
              -7.4125169
            ],
            [
              112.2686384,
              -7.4132617
            ],
            [
              112.2677586,
              -7.4173258
            ],
            [
              112.2672866,
              -7.4150916
            ],
            [
              112.2668145,
              -7.4127935
            ],
            [
              112.2677372,
              -7.4173896
            ],
            [
              112.2666428,
              -7.4221346
            ],
            [
              112.2680805,
              -7.4226453
            ],
            [
              112.2700761,
              -7.4177726
            ],
            [
              112.2697113,
              -7.412602
            ],
            [
              112.2701404,
              -7.4114743
            ],
            [
              112.2707627,
              -7.4115807
            ],
            [
              112.2708915,
              -7.4107721
            ],
            [
              112.271385,
              -7.4107083
            ],
            [
              112.2714279,
              -7.4096018
            ],
            [
              112.2700117,
              -7.4094528
            ],
            [
              112.2729085,
              -7.4096656
            ],
            [
              112.2729085,
              -7.4076442
            ],
            [
              112.2700546,
              -7.4075378
            ],
            [
              112.269325,
              -7.4068143
            ],
            [
              112.2705267,
              -7.4051758
            ],
            [
              112.2704408,
              -7.404346
            ],
            [
              112.2715996,
              -7.4016223
            ],
            [
              112.2703336,
              -7.4008988
            ],
            [
              112.2705481,
              -7.39992
            ],
            [
              112.2713402,
              -7.3974512
            ],
            [
              112.2721127,
              -7.3957914
            ],
            [
              112.27325,
              -7.3950254
            ],
            [
              112.2729925,
              -7.3938763
            ],
            [
              112.2737006,
              -7.3927485
            ],
            [
              112.2738722,
              -7.3919825
            ],
            [
              112.2730783,
              -7.3921101
            ],
            [
              112.2723702,
              -7.3918548
            ],
            [
              112.2715548,
              -7.391259
            ],
            [
              112.270954,
              -7.3908972
            ],
            [
              112.2702673,
              -7.3908759
            ],
            [
              112.2698597,
              -7.3907908
            ],
            [
              112.269409,
              -7.3905142
            ],
            [
              112.2692374,
              -7.3894502
            ],
            [
              112.2688726,
              -7.3886629
            ],
            [
              112.2682074,
              -7.3884288
            ],
            [
              112.2674779,
              -7.3885352
            ],
            [
              112.2664908,
              -7.3885778
            ],
            [
              112.2659544,
              -7.3891736
            ],
            [
              112.2655483,
              -7.3893551
            ],
            [
              112.2648617,
              -7.3894402
            ],
            [
              112.264572,
              -7.3898126
            ],
            [
              112.2637673,
              -7.3896849
            ],
            [
              112.2634777,
              -7.3901424
            ],
            [
              112.262673,
              -7.3902594
            ],
            [
              112.2628017,
              -7.3896955
            ],
            [
              112.2625657,
              -7.3894934
            ],
            [
              112.262555,
              -7.3888763
            ],
            [
              112.2617181,
              -7.3885252
            ],
            [
              112.2608813,
              -7.3886528
            ],
            [
              112.2607204,
              -7.3891955
            ],
            [
              112.2612782,
              -7.3894508
            ],
            [
              112.2621902,
              -7.3898019
            ],
            [
              112.2619434,
              -7.3899615
            ],
            [
              112.2617825,
              -7.3903233
            ],
            [
              112.261525,
              -7.3910255
            ],
            [
              112.2622546,
              -7.3914617
            ],
            [
              112.2625335,
              -7.3917064
            ],
            [
              112.2634777,
              -7.392015
            ],
            [
              112.262791,
              -7.3928555
            ],
            [
              112.2633382,
              -7.3933662
            ],
            [
              112.2630592,
              -7.394228
            ],
            [
              112.2633275,
              -7.3947175
            ],
            [
              112.2629305,
              -7.3955367
            ],
            [
              112.2634026,
              -7.3965049
            ],
            [
              112.2629082,
              -7.3984976
            ]
          ]
        ]
      }
    },
    {
      "type": "Feature",
      "properties": {
        "nama_lokasi": "Dusun Duren",
        "kategori": "Wilayah Dusun",
        "keterangan": "Batas wilayah dusun",
        "warna_fill": "#ffd600",
        "warna_stroke": "#ffd600"
      },
      "geometry": {
        "type": "Polygon",
        "coordinates": [
          [
            [
              112.2668239,
              -7.3889719
            ],
            [
              112.2666308,
              -7.3903817
            ],
            [
              112.2669044,
              -7.3906371
            ],
            [
              112.2676286,
              -7.3906317
            ],
            [
              112.2684762,
              -7.3906477
            ],
            [
              112.2689429,
              -7.3904668
            ],
            [
              112.2689536,
              -7.3903179
            ],
            [
              112.2688785,
              -7.3892007
            ],
            [
              112.2687283,
              -7.3890305
            ],
            [
              112.2668239,
              -7.3889719
            ]
          ]
        ]
      }
    },
    {
      "type": "Feature",
      "properties": {
        "nama_lokasi": "Lahan Tembakau & Pandan",
        "kategori": "Potensi Ekonomi",
        "keterangan": "Gabungan beberapa petak lahan campuran tembakau dan pandan di sekitar permukiman",
        "warna_fill": "#8B6F47",
        "warna_stroke": "#6B5537"
      },
      "geometry": {
        "type": "MultiPolygon",
        "coordinates": [
          [
            [
              [
                112.2638738,
                -7.3969016
              ],
              [
                112.264775,
                -7.3969229
              ],
              [
                112.2648539,
                -7.395491
              ],
              [
                112.26465,
                -7.3952782
              ],
              [
                112.264606,
                -7.3945631
              ],
              [
                112.264134,
                -7.3933714
              ],
              [
                112.2635986,
                -7.3924268
              ],
              [
                112.2640696,
                -7.3922011
              ],
              [
                112.2634777,
                -7.392015
              ],
              [
                112.2628251,
                -7.3918819
              ],
              [
                112.262791,
                -7.3928555
              ],
              [
                112.2633382,
                -7.3933662
              ],
              [
                112.2634259,
                -7.3945843
              ],
              [
                112.2629305,
                -7.3955367
              ],
              [
                112.2634026,
                -7.3965049
              ],
              [
                112.2638738,
                -7.3969016
              ]
            ]
          ],
          [
            [
              [
                112.265054,
                -7.3968378
              ],
              [
                112.2659981,
                -7.3966676
              ],
              [
                112.266438,
                -7.3970612
              ],
              [
                112.2673607,
                -7.3963997
              ],
              [
                112.2679615,
                -7.395474
              ],
              [
                112.2684041,
                -7.3956057
              ],
              [
                112.2691765,
                -7.3949886
              ],
              [
                112.2700348,
                -7.39418
              ],
              [
                112.2706571,
                -7.3925415
              ],
              [
                112.2713008,
                -7.3911796
              ],
              [
                112.270954,
                -7.3908972
              ],
              [
                112.269949,
                -7.3909669
              ],
              [
                112.269409,
                -7.3905142
              ],
              [
                112.2689834,
                -7.3904987
              ],
              [
                112.2686186,
                -7.3907541
              ],
              [
                112.2675457,
                -7.3906689
              ],
              [
                112.2664943,
                -7.3913286
              ],
              [
                112.2658506,
                -7.3922862
              ],
              [
                112.2659697,
                -7.3927354
              ],
              [
                112.2653152,
                -7.3941185
              ],
              [
                112.2650899,
                -7.3954591
              ],
              [
                112.265054,
                -7.3968378
              ]
            ]
          ],
          [
            [
              [
                112.2715548,
                -7.391259
              ],
              [
                112.270979,
                -7.3922011
              ],
              [
                112.2703996,
                -7.3937119
              ],
              [
                112.2699919,
                -7.3945843
              ],
              [
                112.2686401,
                -7.3956483
              ],
              [
                112.2691846,
                -7.3958571
              ],
              [
                112.2693455,
                -7.3962933
              ],
              [
                112.2687259,
                -7.3968612
              ],
              [
                112.268573,
                -7.398219
              ],
              [
                112.2687903,
                -7.3983295
              ],
              [
                112.2700243,
                -7.3989998
              ],
              [
                112.2705481,
                -7.39992
              ],
              [
                112.2711936,
                -7.3976911
              ],
              [
                112.2721127,
                -7.3957914
              ],
              [
                112.27325,
                -7.3950254
              ],
              [
                112.2730389,
                -7.3936693
              ],
              [
                112.2738722,
                -7.3919825
              ],
              [
                112.2730783,
                -7.3921101
              ],
              [
                112.2723702,
                -7.3918548
              ],
              [
                112.2715548,
                -7.391259
              ]
            ]
          ],
          [
            [
              [
                112.2658506,
                -7.3922862
              ],
              [
                112.2664943,
                -7.3913286
              ],
              [
                112.2662583,
                -7.3912435
              ],
              [
                112.2657862,
                -7.3908817
              ],
              [
                112.2654,
                -7.3904561
              ],
              [
                112.2649923,
                -7.3902221
              ],
              [
                112.2647777,
                -7.3897114
              ],
              [
                112.264572,
                -7.3898126
              ],
              [
                112.2639409,
                -7.3897326
              ],
              [
                112.2636834,
                -7.3901795
              ],
              [
                112.2629109,
                -7.3902646
              ],
              [
                112.2629753,
                -7.3913924
              ],
              [
                112.2634473,
                -7.3916478
              ],
              [
                112.264134,
                -7.3917116
              ],
              [
                112.2647133,
                -7.3916691
              ],
              [
                112.2651639,
                -7.3920947
              ],
              [
                112.2658506,
                -7.3922862
              ]
            ]
          ]
        ]
      }
    },
    {
      "type": "Feature",
      "properties": {
        "nama_lokasi": "Lahan Tembakau (Area Mayoritas)",
        "kategori": "Potensi Ekonomi",
        "keterangan": "Area luas di selatan desa yang mayoritas ditanami tembakau",
        "warna_fill": "#A67C3D",
        "warna_stroke": "#7A5A2A"
      },
      "geometry": {
        "type": "Polygon",
        "coordinates": [
          [
            [
              112.2666231,
              -7.4035655
            ],
            [
              112.2704408,
              -7.404346
            ],
            [
              112.269325,
              -7.4068143
            ],
            [
              112.2700546,
              -7.4075378
            ],
            [
              112.2723094,
              -7.4077148
            ],
            [
              112.2721377,
              -7.4096725
            ],
            [
              112.271385,
              -7.4107083
            ],
            [
              112.2707627,
              -7.4115807
            ],
            [
              112.2698847,
              -7.4155027
            ],
            [
              112.2699919,
              -7.4180561
            ],
            [
              112.2677372,
              -7.4173896
            ],
            [
              112.2684685,
              -7.4132047
            ],
            [
              112.266945,
              -7.4125238
            ],
            [
              112.2670952,
              -7.4106087
            ],
            [
              112.2655287,
              -7.4102683
            ],
            [
              112.2659776,
              -7.4083038
            ],
            [
              112.2661708,
              -7.4083676
            ],
            [
              112.2662888,
              -7.4076974
            ],
            [
              112.2663441,
              -7.4072254
            ],
            [
              112.2662154,
              -7.4068637
            ],
            [
              112.2664175,
              -7.4054737
            ],
            [
              112.2666445,
              -7.4037145
            ],
            [
              112.2666231,
              -7.4034165
            ],
            [
              112.2666231,
              -7.4035655
            ]
          ]
        ]
      }
    }
  ]
}