<?xml version="1.0" encoding="UTF-8"?>
<kml xmlns="http://www.opengis.net/kml/2.2">
  <Document>
    <name>Untitled map</name>
    <description/>
    <Style id="line-000000-1200-nodesc-normal">
      <LineStyle>
        <color>ff000000</color>
        <width>1.2</width>
      </LineStyle>
      <BalloonStyle>
        <text><![CDATA[<h3>$[name]</h3>]]></text>
      </BalloonStyle>
    </Style>
    <Style id="line-000000-1200-nodesc-highlight">
      <LineStyle>
        <color>ff000000</color>
        <width>1.8</width>
      </LineStyle>
      <BalloonStyle>
        <text><![CDATA[<h3>$[name]</h3>]]></text>
      </BalloonStyle>
    </Style>
    <StyleMap id="line-000000-1200-nodesc">
      <Pair>
        <key>normal</key>
        <styleUrl>#line-000000-1200-nodesc-normal</styleUrl>
      </Pair>
      <Pair>
        <key>highlight</key>
        <styleUrl>#line-000000-1200-nodesc-highlight</styleUrl>
      </Pair>
    </StyleMap>
    <Style id="line-7CB342-1200-nodesc-normal">
      <LineStyle>
        <color>ff42b37c</color>
        <width>1.2</width>
      </LineStyle>
      <BalloonStyle>
        <text><![CDATA[<h3>$[name]</h3>]]></text>
      </BalloonStyle>
    </Style>
    <Style id="line-7CB342-1200-nodesc-highlight">
      <LineStyle>
        <color>ff42b37c</color>
        <width>1.8</width>
      </LineStyle>
      <BalloonStyle>
        <text><![CDATA[<h3>$[name]</h3>]]></text>
      </BalloonStyle>
    </Style>
    <StyleMap id="line-7CB342-1200-nodesc">
      <Pair>
        <key>normal</key>
        <styleUrl>#line-7CB342-1200-nodesc-normal</styleUrl>
      </Pair>
      <Pair>
        <key>highlight</key>
        <styleUrl>#line-7CB342-1200-nodesc-highlight</styleUrl>
      </Pair>
    </StyleMap>
    <Style id="poly-000000-1200-77-normal">
      <LineStyle>
        <color>ff000000</color>
        <width>1.2</width>
      </LineStyle>
      <PolyStyle>
        <color>4d000000</color>
        <fill>1</fill>
        <outline>1</outline>
      </PolyStyle>
    </Style>
    <Style id="poly-000000-1200-77-highlight">
      <LineStyle>
        <color>ff000000</color>
        <width>1.8</width>
      </LineStyle>
      <PolyStyle>
        <color>4d000000</color>
        <fill>1</fill>
        <outline>1</outline>
      </PolyStyle>
    </Style>
    <StyleMap id="poly-000000-1200-77">
      <Pair>
        <key>normal</key>
        <styleUrl>#poly-000000-1200-77-normal</styleUrl>
      </Pair>
      <Pair>
        <key>highlight</key>
        <styleUrl>#poly-000000-1200-77-highlight</styleUrl>
      </Pair>
    </StyleMap>
    <Style id="poly-0F9D58-1200-77-nodesc-normal">
      <LineStyle>
        <color>ff589d0f</color>
        <width>1.2</width>
      </LineStyle>
      <PolyStyle>
        <color>4d589d0f</color>
        <fill>1</fill>
        <outline>1</outline>
      </PolyStyle>
      <BalloonStyle>
        <text><![CDATA[<h3>$[name]</h3>]]></text>
      </BalloonStyle>
    </Style>
    <Style id="poly-0F9D58-1200-77-nodesc-highlight">
      <LineStyle>
        <color>ff589d0f</color>
        <width>1.8</width>
      </LineStyle>
      <PolyStyle>
        <color>4d589d0f</color>
        <fill>1</fill>
        <outline>1</outline>
      </PolyStyle>
      <BalloonStyle>
        <text><![CDATA[<h3>$[name]</h3>]]></text>
      </BalloonStyle>
    </Style>
    <StyleMap id="poly-0F9D58-1200-77-nodesc">
      <Pair>
        <key>normal</key>
        <styleUrl>#poly-0F9D58-1200-77-nodesc-normal</styleUrl>
      </Pair>
      <Pair>
        <key>highlight</key>
        <styleUrl>#poly-0F9D58-1200-77-nodesc-highlight</styleUrl>
      </Pair>
    </StyleMap>
    <Style id="poly-558B2F-1200-77-nodesc-normal">
      <LineStyle>
        <color>ff2f8b55</color>
        <width>1.2</width>
      </LineStyle>
      <PolyStyle>
        <color>4d2f8b55</color>
        <fill>1</fill>
        <outline>1</outline>
      </PolyStyle>
      <BalloonStyle>
        <text><![CDATA[<h3>$[name]</h3>]]></text>
      </BalloonStyle>
    </Style>
    <Style id="poly-558B2F-1200-77-nodesc-highlight">
      <LineStyle>
        <color>ff2f8b55</color>
        <width>1.8</width>
      </LineStyle>
      <PolyStyle>
        <color>4d2f8b55</color>
        <fill>1</fill>
        <outline>1</outline>
      </PolyStyle>
      <BalloonStyle>
        <text><![CDATA[<h3>$[name]</h3>]]></text>
      </BalloonStyle>
    </Style>
    <StyleMap id="poly-558B2F-1200-77-nodesc">
      <Pair>
        <key>normal</key>
        <styleUrl>#poly-558B2F-1200-77-nodesc-normal</styleUrl>
      </Pair>
      <Pair>
        <key>highlight</key>
        <styleUrl>#poly-558B2F-1200-77-nodesc-highlight</styleUrl>
      </Pair>
    </StyleMap>
    <Style id="poly-673AB7-1200-77-nodesc-normal">
      <LineStyle>
        <color>ffb73a67</color>
        <width>1.2</width>
      </LineStyle>
      <PolyStyle>
        <color>4db73a67</color>
        <fill>1</fill>
        <outline>1</outline>
      </PolyStyle>
      <BalloonStyle>
        <text><![CDATA[<h3>$[name]</h3>]]></text>
      </BalloonStyle>
    </Style>
    <Style id="poly-673AB7-1200-77-nodesc-highlight">
      <LineStyle>
        <color>ffb73a67</color>
        <width>1.8</width>
      </LineStyle>
      <PolyStyle>
        <color>4db73a67</color>
        <fill>1</fill>
        <outline>1</outline>
      </PolyStyle>
      <BalloonStyle>
        <text><![CDATA[<h3>$[name]</h3>]]></text>
      </BalloonStyle>
    </Style>
    <StyleMap id="poly-673AB7-1200-77-nodesc">
      <Pair>
        <key>normal</key>
        <styleUrl>#poly-673AB7-1200-77-nodesc-normal</styleUrl>
      </Pair>
      <Pair>
        <key>highlight</key>
        <styleUrl>#poly-673AB7-1200-77-nodesc-highlight</styleUrl>
      </Pair>
    </StyleMap>
    <Style id="poly-A1C2FA-1200-77-nodesc-normal">
      <LineStyle>
        <color>fffac2a1</color>
        <width>1.2</width>
      </LineStyle>
      <PolyStyle>
        <color>4dfac2a1</color>
        <fill>1</fill>
        <outline>1</outline>
      </PolyStyle>
      <BalloonStyle>
        <text><![CDATA[<h3>$[name]</h3>]]></text>
      </BalloonStyle>
    </Style>
    <Style id="poly-A1C2FA-1200-77-nodesc-highlight">
      <LineStyle>
        <color>fffac2a1</color>
        <width>1.8</width>
      </LineStyle>
      <PolyStyle>
        <color>4dfac2a1</color>
        <fill>1</fill>
        <outline>1</outline>
      </PolyStyle>
      <BalloonStyle>
        <text><![CDATA[<h3>$[name]</h3>]]></text>
      </BalloonStyle>
    </Style>
    <StyleMap id="poly-A1C2FA-1200-77-nodesc">
      <Pair>
        <key>normal</key>
        <styleUrl>#poly-A1C2FA-1200-77-nodesc-normal</styleUrl>
      </Pair>
      <Pair>
        <key>highlight</key>
        <styleUrl>#poly-A1C2FA-1200-77-nodesc-highlight</styleUrl>
      </Pair>
    </StyleMap>
    <Style id="poly-E65100-1200-77-nodesc-normal">
      <LineStyle>
        <color>ff0051e6</color>
        <width>1.2</width>
      </LineStyle>
      <PolyStyle>
        <color>4d0051e6</color>
        <fill>1</fill>
        <outline>1</outline>
      </PolyStyle>
      <BalloonStyle>
        <text><![CDATA[<h3>$[name]</h3>]]></text>
      </BalloonStyle>
    </Style>
    <Style id="poly-E65100-1200-77-nodesc-highlight">
      <LineStyle>
        <color>ff0051e6</color>
        <width>1.8</width>
      </LineStyle>
      <PolyStyle>
        <color>4d0051e6</color>
        <fill>1</fill>
        <outline>1</outline>
      </PolyStyle>
      <BalloonStyle>
        <text><![CDATA[<h3>$[name]</h3>]]></text>
      </BalloonStyle>
    </Style>
    <StyleMap id="poly-E65100-1200-77-nodesc">
      <Pair>
        <key>normal</key>
        <styleUrl>#poly-E65100-1200-77-nodesc-normal</styleUrl>
      </Pair>
      <Pair>
        <key>highlight</key>
        <styleUrl>#poly-E65100-1200-77-nodesc-highlight</styleUrl>
      </Pair>
    </StyleMap>
    <Folder>
      <name>Untitled layer</name>
      <Placemark>
        <name>Line 2</name>
        <styleUrl>#line-000000-1200-nodesc</styleUrl>
        <LineString>
          <tessellate>1</tessellate>
          <coordinates>
            112.2668239,-7.3889719,0
            112.2687283,-7.3890305,0
          </coordinates>
        </LineString>
      </Placemark>
      <Placemark>
        <name>DUSUN KALIPANG</name>
        <styleUrl>#poly-673AB7-1200-77-nodesc</styleUrl>
        <Polygon>
          <outerBoundaryIs>
            <LinearRing>
              <tessellate>1</tessellate>
              <coordinates>
                112.2658409,-7.3924162,0
                112.264414,-7.3919799,0
                112.2635986,-7.3924268,0
                112.264296,-7.3934695,0
                112.2647573,-7.3948314,0
                112.26465,-7.3952782,0
                112.2648539,-7.395491,0
                112.2650899,-7.3954591,0
                112.2653152,-7.3941185,0
                112.2659697,-7.3927354,0
                112.2658409,-7.3924162,0
              </coordinates>
            </LinearRing>
          </outerBoundaryIs>
        </Polygon>
      </Placemark>
      <Placemark>
        <name>DUSUN SLUMBUNG</name>
        <styleUrl>#poly-E65100-1200-77-nodesc</styleUrl>
        <Polygon>
          <outerBoundaryIs>
            <LinearRing>
              <tessellate>1</tessellate>
              <coordinates>
                112.2648539,-7.395491,0
                112.264775,-7.3969229,0
                112.2638738,-7.3969016,0
                112.2633266,-7.3977421,0
                112.2629082,-7.3984976,0
                112.2640454,-7.3986146,0
                112.2647536,-7.3987103,0
                112.2651291,-7.3987848,0
                112.2658372,-7.3989976,0
                112.2660303,-7.399636,0
                112.2664916,-7.3991359,0
                112.2665882,-7.3983912,0
                112.2662663,-7.3979762,0
                112.2662663,-7.3975506,0
                112.266438,-7.3970612,0
                112.2659981,-7.3966676,0
                112.26529,-7.3968059,0
                112.265054,-7.3968378,0
                112.2650899,-7.3954591,0
                112.2648539,-7.395491,0
              </coordinates>
            </LinearRing>
          </outerBoundaryIs>
        </Polygon>
      </Placemark>
      <Placemark>
        <name>DUSUN KARANGGEBANG</name>
        <styleUrl>#poly-0F9D58-1200-77-nodesc</styleUrl>
        <Polygon>
          <outerBoundaryIs>
            <LinearRing>
              <tessellate>1</tessellate>
              <coordinates>
                112.2660303,-7.399636,0
                112.2663951,-7.3999426,0
                112.2664594,-7.4004959,0
                112.2666204,-7.4016981,0
                112.2669637,-7.4017407,0
                112.2676182,-7.3998469,0
                112.2681439,-7.3996022,0
                112.268573,-7.398219,0
                112.2687769,-7.3959634,0
                112.2687125,-7.3966976,0
                112.2693455,-7.3962933,0
                112.2691846,-7.3958571,0
                112.2679615,-7.395474,0
                112.2673607,-7.3963997,0
                112.2669208,-7.3968572,0
                112.266438,-7.3970612,0
                112.2662449,-7.3978679,0
                112.2665882,-7.3983912,0
                112.2664916,-7.3991359,0
                112.2660303,-7.399636,0
              </coordinates>
            </LinearRing>
          </outerBoundaryIs>
        </Polygon>
      </Placemark>
      <Placemark>
        <name>dusun jatirubuh</name>
        <styleUrl>#poly-A1C2FA-1200-77-nodesc</styleUrl>
        <Polygon>
          <outerBoundaryIs>
            <LinearRing>
              <tessellate>1</tessellate>
              <coordinates>
                112.267385,-7.4005426,0
                112.2680663,-7.4008618,0
                112.2689783,-7.4009735,0
                112.2701906,-7.4009256,0
                112.2705983,-7.4009681,0
                112.2705554,-7.4004309,0
                112.2702496,-7.399585,0
                112.2700243,-7.3989998,0
                112.268573,-7.398219,0
                112.2681439,-7.3996022,0
                112.2676182,-7.3998469,0
                112.267385,-7.4005426,0
              </coordinates>
            </LinearRing>
          </outerBoundaryIs>
        </Polygon>
      </Placemark>
      <Placemark>
        <name>dusun kadenan</name>
        <styleUrl>#poly-558B2F-1200-77-nodesc</styleUrl>
        <Polygon>
          <outerBoundaryIs>
            <LinearRing>
              <tessellate>1</tessellate>
              <coordinates>
                112.2666204,-7.4016981,0
                112.2667793,-7.4019313,0
                112.2671494,-7.4022398,0
                112.2673533,-7.4024101,0
                112.2671655,-7.4029952,0
                112.2676644,-7.4031123,0
                112.2687963,-7.403857,0
                112.2701857,-7.4038517,0
                112.2702822,-7.4025909,0
                112.2706309,-7.4014525,0
                112.2705983,-7.4009681,0
                112.2689783,-7.4009735,0
                112.2680663,-7.4008618,0
                112.267385,-7.4005426,0
                112.2669637,-7.4017407,0
                112.2666204,-7.4016981,0
              </coordinates>
            </LinearRing>
          </outerBoundaryIs>
        </Polygon>
      </Placemark>
      <Placemark>
        <name>DESA MUNUNGKEREP</name>
        <description>PUSAT DESA</description>
        <styleUrl>#poly-000000-1200-77</styleUrl>
        <Polygon>
          <outerBoundaryIs>
            <LinearRing>
              <tessellate>1</tessellate>
              <coordinates>
                112.2743442,-7.3854388,0
                112.2734001,-7.3854388,0
                112.2737648,-7.3861836,0
                112.2741082,-7.3867369,0
                112.274945,-7.3875029,0
                112.2756746,-7.3878008,0
                112.2766616,-7.38812,0
                112.2768066,-7.3881468,0
                112.2772304,-7.3886841,0
                112.2776112,-7.3888916,0
                112.2777078,-7.3879713,0
                112.2777132,-7.3874819,0
                112.2778902,-7.3870031,0
                112.2773913,-7.3865456,0
                112.2763399,-7.3858859,0
                112.2755996,-7.3854497,0
                112.2743442,-7.3854388,0
              </coordinates>
            </LinearRing>
          </outerBoundaryIs>
        </Polygon>
      </Placemark>
      <Placemark>
        <name>FULL MUNUNGKEREP</name>
        <description>FULL DAERAH</description>
        <styleUrl>#poly-000000-1200-77</styleUrl>
        <Polygon>
          <outerBoundaryIs>
            <LinearRing>
              <tessellate>1</tessellate>
              <coordinates>
                112.2659544,-7.3891736,0
                112.2655483,-7.3893551,0
                112.2648617,-7.3894402,0
                112.264572,-7.3898126,0
                112.2637673,-7.3896849,0
                112.2634777,-7.3901424,0
                112.262673,-7.3902594,0
                112.2628017,-7.3896955,0
                112.2625657,-7.3894934,0
                112.262555,-7.3888763,0
                112.2617181,-7.3885252,0
                112.2608813,-7.3886528,0
                112.2607204,-7.3891955,0
                112.2612782,-7.3894508,0
                112.2621902,-7.3898019,0
                112.2619434,-7.3899615,0
                112.2617825,-7.3903233,0
                112.261525,-7.3910255,0
                112.2622546,-7.3914617,0
                112.2625335,-7.3917064,0
                112.2634777,-7.392015,0
                112.262791,-7.3928555,0
                112.2633382,-7.3933662,0
                112.2630592,-7.394228,0
                112.2633275,-7.3947175,0
                112.2629305,-7.3955367,0
                112.2634026,-7.3965049,0
                112.2629082,-7.3984976,0
                112.2644969,-7.3987179,0
                112.2656343,-7.3987922,0
                112.2655592,-7.3991646,0
                112.2661493,-7.3986007,0
                112.2670398,-7.3981538,0
                112.2674904,-7.3986964,0
                112.2672973,-7.3991752,0
                112.2676621,-7.3992922,0
                112.267072,-7.4011009,0
                112.2668252,-7.4020585,0
                112.266675,-7.4032076,0
                112.2664712,-7.4051226,0
                112.2667501,-7.4052929,0
                112.2667501,-7.405644,0
                112.2664175,-7.4054737,0
                112.2661493,-7.4072931,0
                112.2666428,-7.4074207,0
                112.2666106,-7.4077931,0
                112.2662888,-7.4076974,0
                112.2661708,-7.4083676,0
                112.2659776,-7.4083038,0
                112.265055,-7.4083357,0
                112.264894,-7.4087081,0
                112.2650013,-7.4096443,0
                112.265291,-7.4101657,0
                112.2671256,-7.4104529,0
                112.2668896,-7.411719,0
                112.2668145,-7.4125169,0
                112.2686384,-7.4132617,0
                112.2677586,-7.4173258,0
                112.2672866,-7.4150916,0
                112.2668145,-7.4127935,0
                112.2677372,-7.4173896,0
                112.2666428,-7.4221346,0
                112.2680805,-7.4226453,0
                112.2700761,-7.4177726,0
                112.2697113,-7.412602,0
                112.2701404,-7.4114743,0
                112.2707627,-7.4115807,0
                112.2708915,-7.4107721,0
                112.271385,-7.4107083,0
                112.2714279,-7.4096018,0
                112.2700117,-7.4094528,0
                112.2729085,-7.4096656,0
                112.2729085,-7.4076442,0
                112.2700546,-7.4075378,0
                112.269325,-7.4068143,0
                112.2705267,-7.4051758,0
                112.2704408,-7.404346,0
                112.2715996,-7.4016223,0
                112.2703336,-7.4008988,0
                112.2705481,-7.39992,0
                112.2713402,-7.3974512,0
                112.2721127,-7.3957914,0
                112.27325,-7.3950254,0
                112.2729925,-7.3938763,0
                112.2737006,-7.3927485,0
                112.2738722,-7.3919825,0
                112.2730783,-7.3921101,0
                112.2723702,-7.3918548,0
                112.2715548,-7.391259,0
                112.270954,-7.3908972,0
                112.2702673,-7.3908759,0
                112.2698597,-7.3907908,0
                112.269409,-7.3905142,0
                112.2692374,-7.3894502,0
                112.2688726,-7.3886629,0
                112.2682074,-7.3884288,0
                112.2674779,-7.3885352,0
                112.2664908,-7.3885778,0
                112.2659544,-7.3891736,0
              </coordinates>
            </LinearRing>
          </outerBoundaryIs>
        </Polygon>
      </Placemark>
      <Placemark>
        <name>mayoritas tembakau</name>
        <styleUrl>#line-7CB342-1200-nodesc</styleUrl>
        <LineString>
          <tessellate>1</tessellate>
          <coordinates>
            112.2666231,-7.4035655,0
            112.2704408,-7.404346,0
            112.269325,-7.4068143,0
            112.2700546,-7.4075378,0
            112.2723094,-7.4077148,0
            112.2721377,-7.4096725,0
            112.271385,-7.4107083,0
            112.2707627,-7.4115807,0
            112.2698847,-7.4155027,0
            112.2699919,-7.4180561,0
            112.2677372,-7.4173896,0
            112.2684685,-7.4132047,0
            112.266945,-7.4125238,0
            112.2670952,-7.4106087,0
            112.2655287,-7.4102683,0
            112.2659776,-7.4083038,0
            112.2661708,-7.4083676,0
            112.2662888,-7.4076974,0
            112.2663441,-7.4072254,0
            112.2662154,-7.4068637,0
            112.2664175,-7.4054737,0
            112.2666445,-7.4037145,0
            112.2666231,-7.4034165,0
          </coordinates>
        </LineString>
      </Placemark>
      <Placemark>
        <name>tembakau dan pandan</name>
        <styleUrl>#poly-0F9D58-1200-77-nodesc</styleUrl>
        <Polygon>
          <outerBoundaryIs>
            <LinearRing>
              <tessellate>1</tessellate>
              <coordinates>
                112.2638738,-7.3969016,0
                112.264775,-7.3969229,0
                112.2648539,-7.395491,0
                112.26465,-7.3952782,0
                112.264606,-7.3945631,0
                112.264134,-7.3933714,0
                112.2635986,-7.3924268,0
                112.2640696,-7.3922011,0
                112.2634777,-7.392015,0
                112.2628251,-7.3918819,0
                112.262791,-7.3928555,0
                112.2633382,-7.3933662,0
                112.2634259,-7.3945843,0
                112.2629305,-7.3955367,0
                112.2634026,-7.3965049,0
                112.2638738,-7.3969016,0
              </coordinates>
            </LinearRing>
          </outerBoundaryIs>
        </Polygon>
      </Placemark>
      <Placemark>
        <name>tembakau dan pandan</name>
        <styleUrl>#poly-0F9D58-1200-77-nodesc</styleUrl>
        <Polygon>
          <outerBoundaryIs>
            <LinearRing>
              <tessellate>1</tessellate>
              <coordinates>
                112.265054,-7.3968378,0
                112.2659981,-7.3966676,0
                112.266438,-7.3970612,0
                112.2673607,-7.3963997,0
                112.2679615,-7.395474,0
                112.2684041,-7.3956057,0
                112.2691765,-7.3949886,0
                112.2700348,-7.39418,0
                112.2706571,-7.3925415,0
                112.2713008,-7.3911796,0
                112.270954,-7.3908972,0
                112.269949,-7.3909669,0
                112.269409,-7.3905142,0
                112.2689834,-7.3904987,0
                112.2686186,-7.3907541,0
                112.2675457,-7.3906689,0
                112.2664943,-7.3913286,0
                112.2658506,-7.3922862,0
                112.2659697,-7.3927354,0
                112.2653152,-7.3941185,0
                112.2650899,-7.3954591,0
                112.265054,-7.3968378,0
              </coordinates>
            </LinearRing>
          </outerBoundaryIs>
        </Polygon>
      </Placemark>
      <Placemark>
        <name>tembakau dan pandan</name>
        <styleUrl>#poly-0F9D58-1200-77-nodesc</styleUrl>
        <Polygon>
          <outerBoundaryIs>
            <LinearRing>
              <tessellate>1</tessellate>
              <coordinates>
                112.2686401,-7.3956483,0
                112.2691846,-7.3958571,0
                112.2693455,-7.3962933,0
                112.2687259,-7.3968612,0
                112.268573,-7.398219,0
                112.2687903,-7.3983295,0
                112.2700243,-7.3989998,0
                112.2705481,-7.39992,0
                112.2711936,-7.3976911,0
                112.2721127,-7.3957914,0
                112.27325,-7.3950254,0
                112.2730389,-7.3936693,0
                112.2738722,-7.3919825,0
                112.2730783,-7.3921101,0
                112.2723702,-7.3918548,0
                112.2715548,-7.391259,0
                112.270979,-7.3922011,0
                112.2703996,-7.3937119,0
                112.2699919,-7.3945843,0
                112.2686401,-7.3956483,0
              </coordinates>
            </LinearRing>
          </outerBoundaryIs>
        </Polygon>
      </Placemark>
      <Placemark>
        <name>tembakau dan pandan</name>
        <styleUrl>#poly-0F9D58-1200-77-nodesc</styleUrl>
        <Polygon>
          <outerBoundaryIs>
            <LinearRing>
              <tessellate>1</tessellate>
              <coordinates>
                112.2658506,-7.3922862,0
                112.2664943,-7.3913286,0
                112.2662583,-7.3912435,0
                112.2657862,-7.3908817,0
                112.2654,-7.3904561,0
                112.2649923,-7.3902221,0
                112.2647777,-7.3897114,0
                112.264572,-7.3898126,0
                112.2639409,-7.3897326,0
                112.2636834,-7.3901795,0
                112.2629109,-7.3902646,0
                112.2629753,-7.3913924,0
                112.2634473,-7.3916478,0
                112.264134,-7.3917116,0
                112.2647133,-7.3916691,0
                112.2651639,-7.3920947,0
                112.2658506,-7.3922862,0
              </coordinates>
            </LinearRing>
          </outerBoundaryIs>
        </Polygon>
      </Placemark>
    </Folder>
  </Document>
</kml>
